NORAD_CAT_ID,OBJECT_NAME,OBJECT_TYPE,EPOCH,MEAN_MOTION,ECCENTRICITY,INCLINATION,RA_OF_ASC_NODE,ARG_OF_PERICENTER,MEAN_ANOMALY,BSTAR,MEAN_MOTION_DOT,MEAN_MOTION_DDOT,TLE_LINE0,TLE_LINE1,TLE_LINE2,SEMIMAJOR_AXIS,PERIOD,APOGEE,PERIGEE,DECAYED
55402.0,STARLINK-5071,PAYLOAD,2024-07-20 22:06:12,14.98324371,0.0002723,70.0011,129.1886,266.4846,93.6002,5.1482e-05,5.21e-06,0.0,0 STARLINK-5071,1 55402U 23014M   24202.92098021  .00000521  00000-0  51482-4 0  9999,2 55402  70.0011 129.1886 0002723 266.4846  93.6002 14.98324371 82666,6950.21,96.107,573.968,570.183,0.0
55402.0,STARLINK-5071,PAYLOAD,2024-07-21 04:30:44,14.98332678,0.000283,70.0005,128.5169,268.6758,91.4077,3.0044e-05,2.66e-06,0.0,0 STARLINK-5071,1 55402U 23014M   24203.18801584  .00000266  00000-0  30044-4 0  9991,2 55402  70.0005 128.5169 0002830 268.6758  91.4077 14.98332678 81768,6950.185,96.107,574.017,570.083,0.0
55402.0,STARLINK-5071,PAYLOAD,2024-07-21 20:32:05,14.98325042,0.000299,70.0006,126.8333,270.7846,89.297,2.1474e-05,1.63e-06,0.0,0 STARLINK-5071,1 55402U 23014M   24203.85562090  .00000163  00000-0  21474-4 0  9994,2 55402  70.0006 126.8333 0002990 270.7846  89.2970 14.98325042 81867,6950.208,96.107,574.151,569.995,0.0
55402.0,STARLINK-5071,PAYLOAD,2024-07-21 22:08:13,14.98325209,0.0002943,70.0005,126.6651,271.1327,88.9495,3.8584e-06,-4.7e-07,0.0,0 STARLINK-5071,1 55402U 23014M   24203.92238160 -.00000047  00000-0  38584-5 0  9993,2 55402  70.0005 126.6651 0002943 271.1327  88.9495 14.98325209 82813,6950.208,96.107,574.118,570.027,0.0
55402.0,STARLINK-5071,PAYLOAD,2024-07-22 04:32:45,14.98334406,0.0002832,70.0006,125.9901,268.3189,91.7646,3.7007e-05,3.49e-06,0.0,0 STARLINK-5071,1 55402U 23014M   24204.18941477  .00000349  00000-0  37007-4 0  9996,2 55402  70.0006 125.9901 0002832 268.3189  91.7646 14.98334406 81914,6950.179,96.107,574.013,570.076,0.0
55402.0,STARLINK-5071,PAYLOAD,2024-07-22 22:10:14,14.98330041,0.0002997,70.0002,124.1398,270.4138,89.6678,6.6544e-05,7.01e-06,0.0,0 STARLINK-5071,1 55402U 23014M   24204.92377564  .00000701  00000-0  66544-4 0  9998,2 55402  70.0002 124.1398 0002997 270.4138  89.6678 14.98330041 82969,6950.193,96.107,574.141,569.975,0.0
55402.0,STARLINK-5071,PAYLOAD,2024-07-23 04:34:45,14.98338799,0.0002939,70.0004,123.4664,266.163,93.9193,9.7547e-05,1.071e-05,0.0,0 STARLINK-5071,1 55402U 23014M   24205.19080847  .00001071  00000-0  97547-4 0  9991,2 55402  70.0004 123.4664 0002939 266.1630  93.9193 14.98338799 82063,6950.166,96.106,574.073,569.988,0.0
55402.0,STARLINK-5071,PAYLOAD,2024-07-24 04:36:48,14.98324176,0.0002754,70.0007,120.9425,258.0317,102.0533,-5.8241e-05,-7.88e-06,0.0,0 STARLINK-5071,1 55402U 23014M   24206.19222380 -.00000788  00000-0 -58241-4 0  9996,2 55402  70.0007 120.9425 0002754 258.0317 102.0533 14.98324176 82211,6950.211,96.107,573.99,570.162,0.0
55402.0,STARLINK-5071,PAYLOAD,2024-07-24 17:25:51,14.98336057,0.0003785,69.9985,119.5954,255.5238,104.5501,-7.6118e-05,-1.001e-05,0.0,0 STARLINK-5071,1 55402U 23014M   24206.72629524 -.00001001  00000-0 -76118-4 0  9998,2 55402  69.9985 119.5954 0003785 255.5238 104.5501 14.98336057 82294,6950.174,96.107,574.67,569.409,0.0
55402.0,STARLINK-5071,PAYLOAD,2024-07-24 22:14:15,14.98339174,0.0003711,69.9986,119.0918,253.5339,106.5412,-4.9542e-05,-6.84e-06,0.0,0 STARLINK-5071,1 55402U 23014M   24206.92657182 -.00000684  00000-0 -49542-4 0  9998,2 55402  69.9986 119.0918 0003711 253.5339 106.5412 14.98339174 83263,6950.165,96.106,574.609,569.45,0.0
55402.0,STARLINK-5071,PAYLOAD,2024-07-25 04:38:47,14.98345911,0.0003119,69.9998,118.4181,259.3543,100.7265,8.7929e-05,9.57e-06,0.0,0 STARLINK-5071,1 55402U 23014M   24207.19360321  .00000957  00000-0  87929-4 0  9996,2 55402  69.9998 118.4181 0003119 259.3543 100.7265 14.98345911 82362,6950.144,96.106,574.176,569.841,0.0
55402.0,STARLINK-5071,PAYLOAD,2024-07-25 22:16:17,14.9832771,0.0001586,70.0038,116.5648,276.3252,83.7726,4.85e-05,4.86e-06,0.0,0 STARLINK-5071,1 55402U 23014M   24207.92797988  .00000486  00000-0  48500-4 0  9999,2 55402  70.0038 116.5648 0001586 276.3252  83.7726 14.98327710 83415,6950.2,96.107,573.167,570.963,0.0
55402.0,STARLINK-5071,PAYLOAD,2024-07-26 03:04:42,14.98319666,0.0001786,70.003,116.06,266.6644,93.4311,5.9322e-05,6.15e-06,0.0,0 STARLINK-5071,1 55402U 23014M   24208.12826446  .00000615  00000-0  59322-4 0  9992,2 55402  70.0030 116.0600 0001786 266.6644  93.4311 14.98319666 82507,6950.225,96.108,573.331,570.849,0.0
55402.0,STARLINK-5071,PAYLOAD,2024-07-26 11:05:21,14.98331932,0.0002687,70.0007,115.2191,274.8477,85.2375,6.2222e-05,6.5e-06,0.0,0 STARLINK-5071,1 55402U 23014M   24208.46205559  .00000650  00000-0  62222-4 0  9997,2 55402  70.0007 115.2191 0002687 274.8477  85.2375 14.98331932 82557,6950.187,96.107,573.919,570.184,0.0
55402.0,STARLINK-5071,PAYLOAD,2024-07-27 22:20:19,14.98308712,0.0002873,70.0001,111.5145,274.6548,85.4283,0.00031019,3.608e-05,0.0,0 STARLINK-5071,1 55402U 23014M   24209.93078191  .00003608  00000-0  31019-3 0  9995,2 55402  70.0001 111.5145 0002873 274.6548  85.4283 14.98308712 83712,6950.259,96.108,574.121,570.127,0.0
55402.0,STARLINK-5071,PAYLOAD,2024-07-28 03:08:43,14.98328828,0.0003129,69.9994,111.0091,272.9978,87.0823,-4.7703e-05,-6.62e-06,0.0,0 STARLINK-5071,1 55402U 23014M   24210.13105738 -.00000662  00000-0 -47703-4 0  9994,2 55402  69.9994 111.0091 0003129 272.9978  87.0823 14.98328828 82805,6950.197,96.107,574.236,569.887,0.0
55402.0,STARLINK-5071,PAYLOAD,2024-07-28 22:22:20,14.98327404,0.0002945,70.0001,108.9908,270.2159,89.8663,-2.4841e-05,-3.89e-06,0.0,0 STARLINK-5071,1 55402U 23014M   24210.93217896 -.00000389  00000-0 -24841-4 0  9995,2 55402  70.0001 108.9908 0002945 270.2159  89.8663 14.98327404 83864,6950.201,96.107,574.113,570.019,0.0
55402.0,STARLINK-5071,PAYLOAD,2024-07-29 03:10:43,14.98327911,0.0002801,70.0,108.4849,266.8355,93.2483,0.0001188,1.325e-05,0.0,0 STARLINK-5071,1 55402U 23014M   24211.13245266  .00001325  00000-0  11880-3 0  9997,2 55402  70.0000 108.4849 0002801 266.8355  93.2483 14.98327911 82953,6950.199,96.107,574.011,570.118,0.0
55402.0,STARLINK-5071,PAYLOAD,2024-07-29 22:24:20,14.98327468,0.0002774,70.0,106.4651,266.9195,93.1647,9.2578e-05,1.012e-05,0.0,0 STARLINK-5071,1 55402U 23014M   24211.93357545  .00001012  00000-0  92578-4 0  9996,2 55402  70.0000 106.4651 0002774 266.9195  93.1647 14.98327468 84011,6950.201,96.107,573.994,570.138,0.0
55402.0,STARLINK-5071,PAYLOAD,2024-07-30 03:12:44,14.98330496,0.0002795,70.0,105.9603,267.2526,92.8314,0.00011751,1.309e-05,0.0,0 STARLINK-5071,1 55402U 23014M   24212.13385297  .00001309  00000-0  11751-3 0  9996,2 55402  70.0000 105.9603 0002795 267.2526  92.8314 14.98330496 83108,6950.191,96.107,573.999,570.114,0.0
55402.0,STARLINK-5071,PAYLOAD,2024-07-30 22:26:21,14.98334868,0.0002759,69.9999,103.9404,267.5014,92.5829,8.1222e-05,8.76e-06,0.0,0 STARLINK-5071,1 55402U 23014M   24212.93496993  .00000876  00000-0  81222-4 0  9999,2 55402  69.9999 103.9404 0002759 267.5014  92.5829 14.98334868 84166,6950.178,96.107,573.96,570.125,0.0
55402.0,STARLINK-5071,PAYLOAD,2024-07-31 03:14:45,14.98340602,0.0002656,70.0001,103.4366,264.062,96.0237,0.0001137,1.264e-05,0.0,0 STARLINK-5071,1 55402U 23014M   24213.13524423  .00001264  00000-0  11370-3 0  9990,2 55402  70.0001 103.4366 0002656 264.0620  96.0237 14.98340602 83250,6950.16,96.106,573.871,570.179,0.0
55402.0,STARLINK-5071,PAYLOAD,2024-07-31 09:39:17,14.98340753,0.000228,70.0014,102.7626,268.0203,92.0695,-0.0001534,-1.923e-05,0.0,0 STARLINK-5071,1 55402U 23014M   24213.40229072 -.00001923  00000-0 -15340-3 0  9997,2 55402  70.0014 102.7626 0002280 268.0203  92.0695 14.98340753 83294,6950.16,96.106,573.609,570.44,0.0
55402.0,STARLINK-5071,PAYLOAD,2024-07-31 20:52:15,14.9832454,0.0002641,70.0004,101.5858,264.5183,95.5675,-9.3423e-05,-1.207e-05,0.0,0 STARLINK-5071,1 55402U 23014M   24213.86961945 -.00001207  00000-0 -93423-4 0  9993,2 55402  70.0004 101.5858 0002641 264.5183  95.5675 14.98324540 83366,6950.21,96.107,573.91,570.239,0.0
55402.0,STARLINK-5071,PAYLOAD,2024-07-31 22:28:23,14.98324243,0.0002665,70.0004,101.4173,264.9494,95.1361,-9.6929e-05,-1.249e-05,0.0,0 STARLINK-5071,1 55402U 23014M   24213.93637929 -.00001249  00000-0 -96929-4 0  9993,2 55402  70.0004 101.4173 0002665 264.9494  95.1361 14.98324243 84314,6950.211,96.107,573.928,570.223,0.0
55402.0,STARLINK-5071,PAYLOAD,2024-08-01 09:41:19,14.98331772,0.000283,69.9999,100.2387,266.307,93.7765,-1.2617e-05,-2.44e-06,0.0,0 STARLINK-5071,1 55402U 23014M   24214.40369245 -.00000244  00000-0 -12617-4 0  9995,2 55402  69.9999 100.2387 0002830 266.3070  93.7765 14.98331772 83448,6950.187,96.107,574.019,570.086,0.0
55402.0,STARLINK-5071,PAYLOAD,2024-08-01 20:54:14,14.98344572,0.0002823,70.0003,99.0616,262.7907,97.2931,-2.7423e-05,-4.2e-06,0.0,0 STARLINK-5071,1 55402U 23014M   24214.87100380 -.00000420  00000-0 -27423-4 0  9996,2 55402  70.0003  99.0616 0002823 262.7907  97.2931 14.98344572 83512,6950.148,96.106,573.975,570.051,0.0
55402.0,STARLINK-5071,PAYLOAD,2024-08-01 22:30:22,14.98343964,0.0003082,69.9997,98.8915,257.7034,102.378,-8.1671e-06,-1.91e-06,0.0,0 STARLINK-5071,1 55402U 23014M   24214.93776201 -.00000191  00000-0 -81671-5 0  9995,2 55402  69.9997  98.8915 0003082 257.7034 102.3780 14.98343964 84462,6950.15,96.106,574.157,569.873,0.0
55402.0,STARLINK-5071,PAYLOAD,2024-08-02 09:43:19,14.9833882,0.0003249,69.999,97.7136,270.671,89.4077,-4.8869e-05,-6.76e-06,0.0,0 STARLINK-5071,1 55402U 23014M   24215.40508339 -.00000676  00000-0 -48869-4 0  9992,2 55402  69.9990  97.7136 0003249 270.6710  89.4077 14.98338820 83590,6950.166,96.106,574.289,569.773,0.0
55402.0,STARLINK-5071,PAYLOAD,2024-08-02 20:56:16,14.98315527,0.000295,70.0003,96.5333,274.1326,85.9496,5.8809e-05,6.09e-06,0.0,0 STARLINK-5071,1 55402U 23014M   24215.87241829  .00000609  00000-0  58809-4 0  9990,2 55402  70.0003  96.5333 0002950 274.1326  85.9496 14.98315527 83667,6950.238,96.108,574.153,570.052,0.0
